{"type":"FeatureCollection","name":"countries-context","attribution":"Made with Natural Earth (public domain). Packaged by world-atlas.","features":[{"type":"Feature","properties":{"name":"Kazakhstan"},"geometry":{"type":"Polygon","coordinates":[[[87.36,49.215],[86.597,48.55],[85.769,48.455],[85.722,47.453],[85.164,47.001],[83.181,47.33],[82.461,45.539],[81.946,45.317],[79.966,44.918],[80.866,43.181],[80.182,42.92],[80.261,42.35],[79.645,42.497],[79.141,42.856],[77.658,42.961],[75.999,42.988],[75.639,42.878],[74.213,43.298],[73.644,43.091],[73.489,42.501],[71.844,42.846],[71.185,42.704],[70.962,42.265],[70.39,42.081],[69.068,41.384],[68.633,40.669],[68.258,40.663],[67.985,41.137],[66.714,41.169],[66.509,41.988],[66.023,41.995],[66.098,42.998],[64.9,43.728],[63.186,43.65],[62.012,43.504],[61.058,44.407],[60.241,44.784],[58.69,45.5],[58.502,45.586],[55.928,44.996],[55.968,41.309],[55.457,41.26],[54.755,42.044],[54.078,42.325],[52.944,42.117],[52.501,41.783],[52.447,42.027],[52.692,42.443],[52.501,42.792],[51.342,43.134],[50.892,44.031],[50.338,44.285],[50.305,44.61],[51.277,44.515],[51.317,45.246],[52.166,45.409],[53.041,45.26],[53.221,46.235],[53.041,46.852],[52.04,46.805],[51.191,47.049],[50.035,46.609],[49.103,46.399],[48.591,46.561],[48.696,47.076],[48.059,47.744],[47.313,47.715],[46.467,48.394],[47.043,49.152],[46.752,49.356],[47.551,50.454],[48.577,49.875],[48.703,50.605],[50.766,51.693],[52.328,51.718],[54.532,51.026],[55.716,50.622],[56.778,51.043],[58.362,51.063],[59.644,50.545],[59.932,50.842],[61.339,50.799],[61.588,51.273],[59.968,51.96],[60.929,52.448],[60.742,52.72],[61.699,52.979],[60.979,53.665],[61.436,54.007],[65.177,54.354],[65.666,54.601],[68.168,54.97],[69.068,55.384],[70.865,55.17],[71.182,54.134],[72.226,54.377],[73.507,54.036],[73.425,53.491],[74.386,53.546],[76.891,54.491],[76.524,54.178],[77.802,53.404],[80.034,50.865],[80.567,51.388],[81.946,50.813],[83.382,51.068],[83.937,50.889],[84.415,50.312],[85.114,50.117],[85.542,49.692],[86.831,49.826],[87.36,49.215]]]}},{"type":"Feature","properties":{"name":"Uzbekistan"},"geometry":{"type":"Polygon","coordinates":[[[55.968,41.309],[55.928,44.996],[58.502,45.586],[58.69,45.5],[60.241,44.784],[61.058,44.407],[62.012,43.504],[63.186,43.65],[64.9,43.728],[66.098,42.998],[66.023,41.995],[66.509,41.988],[66.714,41.169],[67.985,41.137],[68.258,40.663],[68.633,40.669],[69.068,41.384],[70.39,42.081],[70.962,42.265],[71.261,42.167],[70.419,41.521],[71.157,41.143],[71.869,41.392],[73.054,40.866],[71.776,40.146],[71.013,40.245],[70.602,40.219],[70.458,40.497],[70.667,40.96],[69.331,40.729],[69.011,40.085],[68.536,39.534],[67.7,39.581],[67.441,39.139],[68.176,38.902],[68.392,38.158],[67.83,37.145],[67.074,37.355],[66.52,37.362],[66.545,37.975],[65.216,38.403],[64.169,38.892],[63.517,39.363],[62.376,40.053],[61.883,41.084],[61.548,41.267],[60.464,41.221],[60.083,41.426],[59.975,42.223],[58.628,42.751],[57.786,42.171],[56.933,41.825],[57.095,41.323],[55.968,41.309]]]}},{"type":"Feature","properties":{"name":"Indonesia"},"geometry":{"type":"MultiPolygon","coordinates":[[[[141.001,-2.601],[141.019,-5.859],[141.033,-9.117],[140.144,-8.296],[139.129,-8.097],[138.88,-8.381],[137.613,-8.411],[138.038,-7.597],[138.668,-7.32],[138.409,-6.233],[137.926,-5.394],[135.99,-4.547],[135.165,-4.463],[133.664,-3.539],[133.369,-4.024],[132.984,-4.112],[132.757,-3.747],[132.753,-3.312],[131.99,-2.821],[133.066,-2.46],[133.779,-2.479],[133.696,-2.215],[132.231,-2.213],[131.835,-1.618],[130.942,-1.433],[130.521,-0.937],[131.868,-0.695],[132.379,-0.37],[133.984,-0.78],[134.143,-1.152],[134.424,-2.768],[135.457,-3.368],[136.292,-2.306],[137.44,-1.704],[138.33,-1.702],[139.186,-2.051],[139.928,-2.41],[141.001,-2.601]]],[[[124.97,-8.892],[125.071,-9.09],[125.089,-9.393],[124.437,-10.14],[123.58,-10.36],[123.461,-10.239],[123.551,-9.899],[123.98,-9.29],[124.97,-8.892]]],[[[134.211,-6.895],[134.114,-6.142],[134.29,-5.783],[134.499,-5.444],[134.726,-5.737],[134.726,-6.214],[134.211,-6.895]]],[[[117.881,4.137],[117.313,3.235],[118.047,2.287],[117.874,1.827],[118.997,0.903],[117.813,0.784],[117.478,0.102],[117.521,-0.803],[116.56,-1.487],[116.535,-2.484],[116.15,-4.012],[116.002,-3.657],[114.865,-4.107],[114.469,-3.496],[113.756,-3.439],[113.255,-3.119],[112.067,-3.478],[111.704,-2.995],[111.049,-3.049],[110.224,-2.934],[110.069,-1.592],[109.572,-1.315],[109.09,-0.46],[108.953,0.415],[109.068,1.343],[109.662,2.006],[109.832,1.338],[110.516,0.772],[111.16,0.977],[111.797,0.904],[112.381,1.41],[112.859,1.498],[113.806,1.218],[114.62,1.431],[115.135,2.822],[115.52,3.169],[115.865,4.306],[117.014,4.306],[117.881,4.137]]],[[[129.373,-2.802],[130.471,-3.093],[130.834,-3.858],[129.992,-3.445],[129.157,-3.363],[128.591,-3.429],[127.9,-3.393],[128.134,-2.843],[129.373,-2.802]]],[[[126.874,-3.791],[126.183,-3.608],[125.989,-3.178],[127,-3.129],[127.249,-3.459],[126.874,-3.791]]],[[[127.933,2.174],[128.005,1.629],[128.595,1.541],[128.689,1.133],[128.635,0.258],[128.12,0.356],[127.969,-0.252],[128.379,-0.78],[128.098,-0.9],[127.695,-0.267],[127.4,1.011],[127.601,1.81],[127.933,2.174]]],[[[122.929,0.876],[124.077,0.918],[125.067,1.644],[125.24,1.421],[124.437,0.427],[123.685,0.236],[122.723,0.43],[121.057,0.381],[120.182,0.238],[120.041,-0.519],[120.934,-1.409],[121.474,-0.956],[123.339,-0.616],[123.26,-1.076],[122.824,-0.93],[122.389,-1.518],[121.507,-1.905],[122.453,-3.187],[122.273,-3.53],[123.17,-4.684],[123.163,-5.341],[122.63,-5.634],[122.237,-5.284],[122.72,-4.464],[121.737,-4.852],[121.489,-4.574],[121.618,-4.189],[120.898,-3.603],[120.974,-2.628],[120.304,-2.931],[120.391,-4.097],[120.43,-5.529],[119.797,-5.673],[119.368,-5.38],[119.653,-4.459],[119.498,-3.495],[119.077,-3.488],[118.767,-2.802],[119.181,-2.147],[119.325,-1.353],[119.825,0.155],[120.034,0.566],[120.887,1.309],[121.669,1.014],[122.929,0.876]]],[[[120.293,-10.258],[118.969,-9.557],[119.901,-9.361],[120.427,-9.666],[120.776,-9.97],[120.715,-10.239],[120.293,-10.258]]],[[[121.341,-8.537],[122.007,-8.461],[122.903,-8.095],[122.756,-8.65],[121.255,-8.934],[119.923,-8.811],[119.923,-8.445],[120.715,-8.237],[121.341,-8.537]]],[[[118.259,-8.362],[118.879,-8.281],[119.127,-8.706],[117.971,-8.907],[117.277,-9.041],[116.74,-9.033],[117.082,-8.457],[117.633,-8.449],[117.899,-8.095],[118.259,-8.362]]],[[[108.485,-6.423],[108.622,-6.778],[110.541,-6.878],[110.761,-6.465],[112.615,-6.946],[112.978,-7.594],[114.479,-7.777],[115.707,-8.371],[114.566,-8.752],[113.464,-8.349],[112.561,-8.376],[111.524,-8.301],[110.588,-8.122],[109.428,-7.741],[108.694,-7.641],[108.276,-7.767],[106.455,-7.355],[106.282,-6.925],[105.364,-6.851],[106.052,-5.896],[107.265,-5.956],[108.071,-6.347],[108.485,-6.423]]],[[[104.37,-1.084],[104.54,-1.782],[104.889,-2.34],[105.623,-2.428],[106.109,-3.061],[105.857,-4.305],[105.818,-5.852],[104.709,-5.873],[103.866,-5.036],[102.585,-4.221],[102.156,-3.615],[101.4,-2.801],[100.904,-2.051],[100.14,-0.651],[99.262,0.183],[98.97,1.043],[98.6,1.823],[97.7,2.453],[97.178,3.31],[96.425,3.868],[95.381,4.972],[95.295,5.479],[95.936,5.439],[97.484,5.246],[98.369,4.269],[99.143,3.59],[99.694,3.174],[100.641,2.099],[101.66,2.084],[102.498,1.399],[103.078,0.561],[103.838,0.104],[103.438,-0.712],[104.01,-1.059],[104.37,-1.084]]]]}},{"type":"Feature","properties":{"name":"Russia"},"geometry":{"type":"MultiPolygon","coordinates":[[[[93.779,81.025],[95.939,81.25],[97.883,80.747],[100.187,79.779],[99.939,78.881],[97.757,78.757],[94.974,79.045],[93.311,79.427],[92.544,80.143],[91.18,80.341],[93.779,81.025]]],[[[102.837,79.282],[105.371,78.713],[105.076,78.307],[99.438,77.921],[101.264,79.234],[102.088,79.346],[102.837,79.282]]],[[[138.83,76.137],[141.472,76.093],[145.087,75.563],[144.298,74.82],[140.616,74.847],[138.956,74.612],[136.976,75.262],[137.512,75.949],[138.83,76.137]]],[[[148.222,75.347],[150.732,75.084],[149.576,74.688],[147.978,74.778],[146.12,75.172],[146.358,75.497],[148.222,75.347]]],[[[139.863,73.37],[140.81,73.766],[142.063,73.857],[143.481,73.475],[143.604,73.212],[142.088,73.205],[140.04,73.317],[139.863,73.37]]],[[[44.847,80.59],[46.799,80.771],[48.318,80.785],[48.523,80.514],[49.095,80.754],[50.039,80.918],[51.522,80.7],[51.137,80.548],[49.794,80.416],[48.894,80.34],[48.753,80.175],[47.587,80.01],[46.503,80.246],[47.072,80.56],[44.847,80.59]]],[[[22.732,54.328],[20.893,54.313],[19.662,54.426],[19.888,54.867],[21.267,55.19],[22.315,55.016],[22.758,54.856],[22.65,54.582],[22.732,54.328]]],[[[53.509,73.75],[55.903,74.627],[55.633,75.081],[57.869,75.609],[61.17,76.252],[64.5,76.438],[66.21,76.811],[68.158,76.939],[68.852,76.545],[68.179,76.233],[64.637,75.737],[61.584,75.26],[58.477,74.309],[56.987,73.332],[55.421,72.371],[55.622,71.54],[57.534,70.721],[56.944,70.633],[53.678,70.763],[53.412,71.207],[51.601,71.474],[51.457,72.016],[52.48,72.229],[52.444,72.776],[54.427,73.627],[53.509,73.75]]],[[[142.916,53.704],[143.262,52.741],[143.236,51.757],[143.647,50.747],[144.655,48.976],[143.175,49.307],[142.56,47.861],[143.535,46.837],[143.506,46.138],[142.747,46.741],[142.092,45.967],[141.908,46.807],[142.02,47.78],[141.904,48.86],[142.135,49.615],[142.182,50.952],[141.595,51.935],[141.681,53.303],[142.606,53.761],[142.21,54.225],[142.653,54.366],[142.916,53.704]]],[[[130.78,42.22],[130.64,42.396],[130.633,42.904],[131.144,42.931],[131.288,44.112],[131.025,44.968],[131.882,45.321],[133.099,45.144],[133.768,46.118],[134.114,47.213],[134.499,47.578],[135.025,48.479],[133.372,48.183],[132.508,47.788],[130.986,47.79],[130.582,48.729],[129.398,49.44],[127.659,49.76],[127.288,50.74],[126.939,51.354],[126.565,51.784],[125.945,52.793],[125.067,53.16],[123.573,53.458],[122.245,53.431],[121.003,53.252],[120.178,52.754],[120.725,52.516],[120.74,51.964],[120.182,51.644],[119.278,50.583],[119.289,50.143],[117.878,49.511],[116.679,49.889],[115.487,49.806],[114.962,50.141],[114.364,50.248],[112.899,49.543],[111.581,49.378],[110.663,49.13],[109.403,49.293],[108.474,49.283],[107.87,49.794],[106.89,50.275],[105.886,50.407],[104.622,50.275],[103.676,50.09],[102.257,50.51],[102.066,51.26],[100.889,51.517],[99.982,51.634],[98.862,52.047],[97.826,51.011],[98.232,50.422],[97.26,49.726],[95.813,49.977],[94.816,50.014],[94.146,50.481],[93.106,50.495],[92.235,50.803],[90.712,50.332],[88.804,49.471],[87.753,49.298],[87.36,49.215],[86.831,49.826],[85.542,49.692],[85.114,50.117],[84.415,50.312],[83.937,50.889],[83.382,51.068],[81.946,50.813],[80.567,51.388],[80.034,50.865],[77.802,53.404],[76.524,54.178],[76.891,54.491],[74.386,53.546],[73.425,53.491],[73.507,54.036],[72.226,54.377],[71.182,54.134],[70.865,55.17],[69.068,55.384],[68.168,54.97],[65.666,54.601],[65.177,54.354],[61.436,54.007],[60.979,53.665],[61.699,52.979],[60.742,52.72],[60.929,52.448],[59.968,51.96],[61.588,51.273],[61.339,50.799],[59.932,50.842],[59.644,50.545],[58.362,51.063],[56.778,51.043],[55.716,50.622],[54.532,51.026],[52.328,51.718],[50.766,51.693],[48.703,50.605],[48.577,49.875],[47.551,50.454],[46.752,49.356],[47.043,49.152],[46.467,48.394],[47.313,47.715],[48.059,47.744],[48.696,47.076],[48.591,46.561],[49.103,46.399],[48.645,45.806],[47.677,45.642],[46.683,44.61],[47.591,43.66],[47.493,42.986],[48.584,41.808],[47.987,41.406],[47.814,41.152],[47.375,41.219],[46.687,41.827],[46.406,41.861],[45.776,42.093],[45.47,42.502],[44.538,42.712],[43.929,42.555],[43.757,42.741],[42.396,43.22],[40.923,43.383],[40.077,43.553],[39.955,43.435],[38.681,44.28],[37.539,44.657],[36.675,45.244],[37.403,45.405],[38.234,46.241],[37.673,46.637],[39.149,47.045],[39.12,47.264],[38.223,47.103],[38.256,47.546],[38.771,47.826],[39.739,47.898],[39.897,48.232],[39.674,48.784],[40.081,49.308],[40.07,49.601],[38.594,49.926],[38.011,49.916],[37.392,50.385],[36.625,50.226],[35.358,50.578],[35.379,50.774],[35.023,51.207],[34.224,51.256],[34.141,51.566],[34.393,51.769],[33.752,52.334],[32.715,52.238],[32.413,52.289],[32.161,52.062],[31.787,52.101],[31.542,52.742],[31.304,53.074],[31.499,53.167],[32.305,53.133],[32.694,53.352],[32.406,53.617],[31.733,53.793],[31.79,53.975],[31.383,54.157],[30.757,54.812],[30.973,55.082],[30.876,55.55],[29.896,55.789],[29.371,55.671],[29.23,55.918],[28.176,56.17],[27.855,56.759],[27.769,57.245],[27.286,57.475],[27.718,57.791],[27.42,58.724],[28.132,59.301],[27.981,59.475],[29.119,60.029],[28.071,60.503],[30.21,61.781],[31.139,62.358],[31.517,62.867],[30.037,63.553],[30.444,64.204],[29.544,64.949],[30.217,65.806],[29.054,66.945],[29.976,67.698],[28.446,68.365],[28.593,69.065],[29.4,69.157],[31.103,69.558],[32.132,69.907],[33.774,69.301],[36.513,69.064],[40.293,67.933],[41.06,67.457],[41.125,66.792],[40.016,66.266],[38.382,66],[33.918,66.76],[33.183,66.633],[34.814,65.9],[34.879,65.437],[34.944,64.414],[36.233,64.11],[37.014,63.851],[37.143,64.335],[36.539,64.765],[37.176,65.144],[39.595,64.521],[40.434,64.765],[39.764,65.498],[42.093,66.476],[43.015,66.418],[43.951,66.07],[44.531,66.757],[43.699,67.353],[44.189,67.95],[43.454,68.571],[46.251,68.25],[46.82,67.689],[45.557,67.566],[45.56,67.011],[46.349,66.667],[47.893,66.884],[48.138,67.522],[50.226,67.999],[53.718,68.857],[54.47,68.808],[53.488,68.201],[54.726,68.097],[55.442,68.439],[57.318,68.466],[58.801,68.881],[59.942,68.278],[61.076,68.94],[60.029,69.521],[60.551,69.851],[63.503,69.548],[64.889,69.235],[68.51,68.092],[69.18,68.615],[68.165,69.145],[68.136,69.357],[66.93,69.455],[67.261,69.929],[66.725,70.709],[66.696,71.029],[68.539,71.934],[69.198,72.843],[69.94,73.04],[72.589,72.776],[72.795,72.22],[71.848,71.41],[72.471,71.09],[72.791,70.391],[72.564,69.021],[73.669,68.409],[73.237,67.74],[71.279,66.32],[72.424,66.173],[72.82,66.533],[73.921,66.789],[74.188,67.285],[75.052,67.76],[74.469,68.329],[74.937,68.989],[73.842,69.072],[73.601,69.627],[74.4,70.631],[73.101,71.447],[74.89,72.12],[74.659,72.833],[75.16,72.855],[75.682,72.3],[75.289,71.335],[76.359,71.152],[75.901,71.873],[77.575,72.268],[79.653,72.32],[81.499,71.75],[80.61,72.583],[80.509,73.649],[82.248,73.85],[84.657,73.806],[86.824,73.937],[86.01,74.46],[87.166,75.116],[88.314,75.143],[90.258,75.639],[92.901,75.773],[93.236,76.047],[95.86,76.14],[96.677,75.915],[98.924,76.447],[100.76,76.43],[101.037,76.861],[101.991,77.288],[104.352,77.697],[106.066,77.374],[104.705,77.127],[106.97,76.975],[107.24,76.481],[108.154,76.723],[111.077,76.711],[113.331,76.222],[114.134,75.848],[113.885,75.328],[112.78,75.032],[110.152,74.477],[109.4,74.18],[110.642,74.04],[112.118,73.788],[113.021,73.977],[113.529,73.336],[113.968,73.595],[115.567,73.752],[118.778,73.588],[119.019,73.121],[123.202,72.972],[123.256,73.735],[125.38,73.559],[126.975,73.566],[128.591,73.038],[129.052,72.398],[128.458,71.98],[129.715,71.193],[131.288,70.787],[132.253,71.836],[133.858,71.386],[135.561,71.655],[137.498,71.347],[138.232,71.628],[139.87,71.487],[139.147,72.417],[140.468,72.85],[149.5,72.2],[150.35,71.606],[152.967,70.843],[157.007,71.032],[158.997,70.866],[159.829,70.453],[159.71,69.722],[160.941,69.438],[162.281,69.643],[164.052,69.668],[165.942,69.472],[167.835,69.583],[169.578,68.693],[170.816,69.013],[170.01,69.653],[170.453,70.096],[173.642,69.817],[175.723,69.878],[178.6,69.401],[-180,68.964],[-177.548,68.201],[-174.928,67.205],[-175.014,66.584],[-174.341,66.335],[-174.571,67.061],[-171.857,66.912],[-169.898,65.977],[-170.892,65.542],[-172.53,65.438],[-172.555,64.46],[-172.955,64.253],[-173.891,64.282],[-174.654,64.631],[-175.982,64.922],[-176.206,65.357],[-177.224,65.52],[-178.358,65.391],[-178.902,65.741],[-178.686,66.112],[-179.885,65.875],[-179.431,65.404],[-180,64.98],[179.993,64.975],[178.708,64.534],[177.412,64.609],[178.312,64.076],[178.909,63.251],[179.37,62.982],[179.485,62.569],[179.23,62.304],[177.365,62.522],[174.568,61.769],[173.678,61.652],[172.148,60.95],[170.698,60.337],[170.33,59.882],[168.901,60.574],[166.295,59.789],[165.841,60.159],[164.876,59.731],[163.541,59.868],[163.217,59.211],[162.018,58.243],[162.054,57.839],[163.191,57.615],[163.058,56.16],[162.129,56.122],[161.701,55.286],[162.119,54.855],[160.369,54.344],[160.023,53.203],[158.529,52.959],[158.231,51.944],[156.791,51.011],[156.42,51.7],[155.991,53.159],[155.433,55.381],[155.916,56.767],[156.758,57.365],[156.809,57.832],[158.364,58.055],[160.149,59.315],[161.874,60.344],[163.67,61.141],[164.473,62.551],[163.26,62.466],[162.659,61.642],[160.121,60.543],[159.303,61.774],[156.722,61.434],[154.217,59.758],[155.045,59.145],[152.813,58.885],[151.265,58.781],[151.337,59.504],[149.785,59.656],[148.546,59.164],[145.486,59.337],[142.196,59.04],[138.96,57.089],[135.126,54.729],[136.702,54.604],[137.192,53.978],[138.164,53.755],[138.805,54.254],[139.903,54.19],[141.346,53.089],[141.379,52.238],[140.598,51.239],[140.515,50.046],[140.061,48.447],[138.556,47],[138.218,46.307],[136.861,45.143],[135.514,43.988],[134.87,43.398],[133.538,42.812],[132.908,42.799],[132.278,43.284],[130.935,42.553],[130.78,42.22]]],[[[-180,71.516],[-179.87,71.557],[-179.024,71.555],[-177.577,71.269],[-177.664,71.132],[-178.693,70.893],[-180,70.832],[178.902,70.782],[178.726,71.098],[-180,71.516]]],[[[33.435,45.972],[33.698,46.219],[34.411,46.004],[34.731,45.965],[34.861,45.767],[35.012,45.737],[35.019,45.651],[35.509,45.41],[36.531,45.469],[36.333,45.114],[35.239,44.94],[33.882,44.361],[33.327,44.566],[33.547,45.034],[32.453,45.327],[32.633,45.519],[33.587,45.852],[33.435,45.972]]]]}},{"type":"Feature","properties":{"name":"United Arab Emirates"},"geometry":{"type":"Polygon","coordinates":[[[51.58,24.245],[51.756,24.294],[51.796,24.02],[52.577,24.177],[53.405,24.152],[54.01,24.121],[54.694,24.798],[55.439,25.44],[56.072,26.056],[56.26,25.714],[56.396,24.925],[55.885,24.92],[55.802,24.27],[55.982,24.131],[55.529,23.933],[55.525,23.525],[55.234,23.111],[55.208,22.708],[55.007,22.496],[52.001,23.001],[51.619,24.015],[51.58,24.245]]]}},{"type":"Feature","properties":{"name":"Oman"},"geometry":{"type":"MultiPolygon","coordinates":[[[[55.208,22.708],[55.234,23.111],[55.525,23.525],[55.529,23.933],[55.982,24.131],[55.802,24.27],[55.885,24.92],[56.396,24.925],[56.846,24.241],[57.404,23.879],[58.135,23.747],[58.729,23.566],[59.179,22.992],[59.449,22.661],[59.809,22.534],[59.806,22.31],[59.442,21.714],[59.284,21.433],[58.862,21.114],[58.488,20.43],[58.034,20.482],[57.826,20.244],[57.667,19.736],[57.79,19.067],[57.696,18.945],[57.235,18.949],[56.609,18.575],[56.512,18.087],[56.285,17.876],[55.662,17.884],[55.27,17.632],[55.273,17.229],[54.791,16.95],[54.24,17.045],[53.57,16.708],[53.11,16.65],[52.782,17.349],[52.001,19],[55,20],[55.666,22],[55.208,22.708]]],[[[56.26,25.714],[56.072,26.056],[56.36,26.396],[56.486,26.31],[56.393,25.897],[56.26,25.714]]]]}},{"type":"Feature","properties":{"name":"Cambodia"},"geometry":{"type":"Polygon","coordinates":[[[102.585,12.187],[102.347,13.394],[102.988,14.227],[104.28,14.416],[105.22,14.274],[106.044,13.881],[106.498,14.57],[107.384,14.203],[107.614,13.536],[107.492,12.338],[105.81,11.568],[106.25,10.962],[105.198,10.889],[104.334,10.486],[103.496,10.633],[103.092,11.153],[102.585,12.187]]]}},{"type":"Feature","properties":{"name":"Thailand"},"geometry":{"type":"Polygon","coordinates":[[[105.22,14.274],[104.28,14.416],[102.988,14.227],[102.347,13.394],[102.585,12.187],[101.688,12.646],[100.832,12.627],[100.979,13.412],[100.097,13.407],[100.018,12.307],[99.478,10.846],[99.154,9.963],[99.222,9.239],[99.874,9.208],[100.281,8.296],[100.461,7.429],[101.019,6.857],[101.624,6.74],[102.142,6.222],[101.814,5.811],[101.156,5.691],[101.076,6.205],[100.259,6.642],[100.086,6.464],[99.69,6.849],[99.521,7.343],[98.988,7.908],[98.502,8.382],[98.34,7.795],[98.15,8.35],[98.258,8.975],[98.553,9.933],[99.039,10.96],[99.586,11.892],[99.197,12.805],[99.212,13.269],[99.096,13.827],[98.43,14.623],[98.193,15.124],[98.538,15.308],[98.902,16.178],[98.495,16.838],[97.858,17.568],[97.376,18.446],[97.797,18.627],[98.254,19.709],[98.96,19.753],[99.543,20.186],[100.115,20.418],[100.547,20.11],[100.605,19.509],[101.282,19.463],[101.037,18.409],[101.058,17.512],[102.113,18.109],[102.412,17.933],[102.999,17.962],[103.2,18.309],[103.956,18.241],[104.716,17.429],[104.781,16.442],[105.587,15.57],[105.544,14.724],[105.22,14.274]]]}},{"type":"Feature","properties":{"name":"Laos"},"geometry":{"type":"Polygon","coordinates":[[[107.384,14.203],[106.498,14.57],[106.044,13.881],[105.22,14.274],[105.544,14.724],[105.587,15.57],[104.781,16.442],[104.716,17.429],[103.956,18.241],[103.2,18.309],[102.999,17.962],[102.412,17.933],[102.113,18.109],[101.058,17.512],[101.037,18.409],[101.282,19.463],[100.605,19.509],[100.547,20.11],[100.115,20.418],[100.328,20.787],[101.181,21.437],[101.271,21.202],[101.804,21.174],[101.652,22.319],[102.171,22.464],[102.754,21.675],[103.204,20.767],[104.435,20.758],[104.824,19.886],[104.183,19.624],[103.895,19.265],[105.094,18.668],[105.926,17.485],[106.556,16.605],[107.312,15.909],[107.564,15.201],[107.384,14.203]]]}},{"type":"Feature","properties":{"name":"Myanmar"},"geometry":{"type":"Polygon","coordinates":[[[100.115,20.418],[99.543,20.186],[98.96,19.753],[98.254,19.709],[97.797,18.627],[97.376,18.446],[97.858,17.568],[98.495,16.838],[98.902,16.178],[98.538,15.308],[98.193,15.124],[98.43,14.623],[99.096,13.827],[99.212,13.269],[99.197,12.805],[99.586,11.892],[99.039,10.96],[98.553,9.933],[98.456,10.676],[98.765,11.441],[98.427,12.033],[98.51,13.123],[98.103,13.641],[97.779,14.838],[97.599,16.1],[97.163,16.93],[96.504,16.427],[95.37,15.714],[94.809,15.804],[94.19,16.038],[94.535,17.277],[94.326,18.214],[93.542,19.367],[93.664,19.727],[93.077,19.856],[92.368,20.67],[92.303,21.476],[92.652,21.323],[92.674,22.041],[93.167,22.278],[93.059,22.703],[93.286,23.043],[93.326,24.079],[94.107,23.85],[94.553,24.675],[94.604,25.162],[95.154,26.002],[95.126,26.574],[96.418,27.264],[97.134,27.083],[97.052,27.699],[97.401,27.882],[97.329,28.261],[97.912,28.336],[98.247,27.747],[98.682,27.508],[98.711,26.743],[98.672,25.919],[97.725,25.084],[97.606,23.898],[98.661,24.064],[98.898,23.143],[99.532,22.948],[99.24,22.119],[99.982,21.743],[100.418,21.559],[101.148,21.85],[101.181,21.437],[100.328,20.787],[100.115,20.418]]]}},{"type":"Feature","properties":{"name":"Vietnam"},"geometry":{"type":"Polygon","coordinates":[[[104.334,10.486],[105.198,10.889],[106.25,10.962],[105.81,11.568],[107.492,12.338],[107.614,13.536],[107.384,14.203],[107.564,15.201],[107.312,15.909],[106.556,16.605],[105.926,17.485],[105.094,18.668],[103.895,19.265],[104.183,19.624],[104.824,19.886],[104.435,20.758],[103.204,20.767],[102.754,21.675],[102.171,22.464],[102.707,22.71],[103.503,22.705],[104.478,22.82],[105.328,23.353],[105.81,22.977],[106.725,22.794],[106.566,22.219],[107.042,21.813],[108.05,21.552],[106.714,20.697],[105.882,19.753],[105.663,19.059],[106.426,18.004],[107.362,16.698],[108.269,16.08],[108.878,15.276],[109.335,13.426],[109.202,11.667],[108.366,11.009],[107.222,10.364],[106.404,9.531],[105.159,8.6],[104.795,9.24],[105.076,9.919],[104.334,10.486]]]}},{"type":"Feature","properties":{"name":"Mongolia"},"geometry":{"type":"Polygon","coordinates":[[[87.753,49.298],[88.804,49.471],[90.712,50.332],[92.235,50.803],[93.106,50.495],[94.146,50.481],[94.816,50.014],[95.813,49.977],[97.26,49.726],[98.232,50.422],[97.826,51.011],[98.862,52.047],[99.982,51.634],[100.889,51.517],[102.066,51.26],[102.257,50.51],[103.676,50.09],[104.622,50.275],[105.886,50.407],[106.89,50.275],[107.87,49.794],[108.474,49.283],[109.403,49.293],[110.663,49.13],[111.581,49.378],[112.899,49.543],[114.364,50.248],[114.962,50.141],[115.487,49.806],[116.679,49.889],[116.193,49.134],[115.484,48.135],[115.743,47.727],[116.308,47.853],[117.295,47.697],[118.065,48.068],[118.868,47.748],[119.771,47.049],[119.663,46.693],[118.875,46.805],[117.421,46.673],[116.719,46.389],[115.984,45.727],[114.461,45.339],[113.464,44.809],[112.435,45.012],[111.873,45.102],[111.347,44.457],[111.668,44.073],[111.83,43.743],[111.131,43.406],[110.411,42.871],[109.245,42.519],[107.744,42.482],[106.131,42.135],[104.964,41.597],[104.522,41.908],[103.312,41.907],[101.832,42.514],[100.846,42.663],[99.518,42.524],[97.451,42.75],[96.35,42.726],[95.763,43.32],[95.306,44.241],[94.69,44.352],[93.48,44.975],[92.134,45.116],[90.946,45.287],[90.586,45.72],[90.971,46.888],[90.28,47.693],[88.854,48.069],[88.015,48.599],[87.753,49.298]]]}},{"type":"Feature","properties":{"name":"India"},"geometry":{"type":"Polygon","coordinates":[[[97.329,28.261],[97.401,27.882],[97.052,27.699],[97.134,27.083],[96.418,27.264],[95.126,26.574],[95.154,26.002],[94.604,25.162],[94.553,24.675],[94.107,23.85],[93.326,24.079],[93.286,23.043],[93.059,22.703],[93.167,22.278],[92.674,22.041],[92.145,23.627],[91.871,23.624],[91.706,22.986],[91.158,23.503],[91.468,24.072],[91.914,24.13],[92.375,24.976],[91.799,25.147],[90.874,25.133],[89.92,25.27],[89.833,25.964],[89.355,26.015],[88.563,26.447],[88.21,25.768],[88.93,25.238],[88.307,24.866],[88.084,24.502],[88.699,24.233],[88.53,23.63],[88.876,22.879],[89.031,22.056],[88.89,21.691],[88.21,21.703],[86.975,21.496],[87.033,20.743],[86.5,20.152],[85.06,19.479],[83.94,18.302],[83.188,17.671],[82.194,17.016],[82.191,16.557],[81.694,16.31],[80.79,15.951],[80.326,15.899],[80.023,15.137],[80.232,13.836],[80.286,13.006],[79.861,12.057],[79.858,10.357],[79.339,10.308],[78.886,9.547],[79.188,9.217],[78.277,8.932],[77.943,8.253],[77.539,7.966],[76.593,8.9],[76.132,10.3],[75.747,11.309],[75.397,11.781],[74.865,12.742],[74.616,13.993],[74.443,14.618],[73.533,15.99],[73.119,17.928],[72.82,19.208],[72.823,20.42],[72.629,21.356],[71.175,20.758],[70.469,20.877],[69.166,22.088],[69.644,22.451],[69.349,22.843],[68.176,23.691],[68.842,24.36],[71.045,24.356],[70.843,25.215],[70.282,25.722],[70.17,26.493],[69.515,26.941],[70.617,27.989],[71.779,27.913],[72.823,28.962],[73.45,29.976],[74.422,30.979],[74.407,31.692],[75.257,32.271],[74.451,32.765],[74.105,33.442],[73.749,34.317],[74.242,34.749],[75.757,34.505],[76.873,34.654],[77.838,35.494],[78.911,34.322],[78.81,33.506],[79.21,32.994],[79.177,32.484],[78.457,32.618],[78.738,31.516],[79.721,30.883],[81.111,30.184],[80.477,29.73],[80.088,28.794],[81.057,28.415],[82,27.926],[83.303,27.364],[84.675,27.236],[85.251,26.726],[86.025,26.631],[87.227,26.398],[88.059,26.415],[88.174,26.811],[88.044,27.445],[88.12,27.877],[88.732,28.087],[88.815,27.3],[88.836,27.098],[89.743,26.719],[90.374,26.875],[91.216,26.809],[92.033,26.838],[92.105,27.452],[91.698,27.772],[92.505,27.897],[93.412,28.64],[94.568,29.277],[95.406,29.031],[96.119,29.453],[96.587,28.832],[96.249,28.412],[97.329,28.261]]]}},{"type":"Feature","properties":{"name":"Bangladesh"},"geometry":{"type":"Polygon","coordinates":[[[92.674,22.041],[92.652,21.323],[92.303,21.476],[92.368,20.67],[92.084,21.191],[92.026,21.701],[91.835,22.183],[91.418,22.765],[90.496,22.804],[90.586,22.393],[90.273,21.836],[89.848,22.039],[89.7,21.857],[89.419,21.967],[89.031,22.056],[88.876,22.879],[88.53,23.63],[88.699,24.233],[88.084,24.502],[88.307,24.866],[88.93,25.238],[88.21,25.768],[88.563,26.447],[89.355,26.015],[89.833,25.964],[89.92,25.27],[90.874,25.133],[91.799,25.147],[92.375,24.976],[91.914,24.13],[91.468,24.072],[91.158,23.503],[91.706,22.986],[91.871,23.624],[92.145,23.627],[92.674,22.041]]]}},{"type":"Feature","properties":{"name":"Bhutan"},"geometry":{"type":"Polygon","coordinates":[[[91.698,27.772],[92.105,27.452],[92.033,26.838],[91.216,26.809],[90.374,26.875],[89.743,26.719],[88.836,27.098],[88.815,27.3],[89.477,28.043],[90.017,28.297],[90.73,28.065],[91.259,28.041],[91.698,27.772]]]}},{"type":"Feature","properties":{"name":"Nepal"},"geometry":{"type":"Polygon","coordinates":[[[88.12,27.877],[88.044,27.445],[88.174,26.811],[88.059,26.415],[87.227,26.398],[86.025,26.631],[85.251,26.726],[84.675,27.236],[83.303,27.364],[82,27.926],[81.057,28.415],[80.088,28.794],[80.477,29.73],[81.111,30.184],[81.525,30.423],[82.327,30.115],[83.335,29.463],[83.901,29.321],[84.235,28.84],[85.013,28.642],[85.823,28.204],[86.953,27.973],[88.12,27.877]]]}},{"type":"Feature","properties":{"name":"Pakistan"},"geometry":{"type":"Polygon","coordinates":[[[77.838,35.494],[76.873,34.654],[75.757,34.505],[74.242,34.749],[73.749,34.317],[74.105,33.442],[74.451,32.765],[75.257,32.271],[74.407,31.692],[74.422,30.979],[73.45,29.976],[72.823,28.962],[71.779,27.913],[70.617,27.989],[69.515,26.941],[70.17,26.493],[70.282,25.722],[70.843,25.215],[71.045,24.356],[68.842,24.36],[68.176,23.691],[67.445,23.945],[67.146,24.663],[66.372,25.424],[64.529,25.237],[62.905,25.218],[61.498,25.078],[61.876,26.24],[63.316,26.757],[63.233,27.217],[62.754,27.379],[62.729,28.26],[61.771,28.7],[61.368,29.304],[60.875,29.829],[62.549,29.319],[63.55,29.468],[64.147,29.341],[64.349,29.559],[65.047,29.471],[66.347,29.888],[66.383,30.739],[66.937,31.304],[67.682,31.303],[67.794,31.584],[68.557,31.714],[68.928,31.621],[69.317,31.902],[69.263,32.503],[69.688,33.105],[70.325,33.359],[69.929,34.019],[70.883,33.989],[71.157,34.349],[71.113,34.734],[71.614,35.153],[71.499,35.651],[71.261,36.074],[71.848,36.511],[72.921,36.721],[74.069,36.836],[74.577,37.02],[75.16,37.134],[75.898,36.666],[76.193,35.898],[77.838,35.494]]]}},{"type":"Feature","properties":{"name":"Afghanistan"},"geometry":{"type":"Polygon","coordinates":[[[66.52,37.362],[67.074,37.355],[67.83,37.145],[68.136,37.024],[68.86,37.343],[69.194,37.151],[69.518,37.609],[70.116,37.589],[70.271,37.734],[70.375,38.139],[70.807,38.486],[71.347,38.259],[71.239,37.953],[71.542,37.905],[71.448,37.066],[71.844,36.738],[72.193,36.949],[72.636,37.047],[73.259,37.496],[73.95,37.421],[74.98,37.42],[75.16,37.134],[74.577,37.02],[74.069,36.836],[72.921,36.721],[71.848,36.511],[71.261,36.074],[71.499,35.651],[71.614,35.153],[71.113,34.734],[71.157,34.349],[70.883,33.989],[69.929,34.019],[70.325,33.359],[69.688,33.105],[69.263,32.503],[69.317,31.902],[68.928,31.621],[68.557,31.714],[67.794,31.584],[67.682,31.303],[66.937,31.304],[66.383,30.739],[66.347,29.888],[65.047,29.471],[64.349,29.559],[64.147,29.341],[63.55,29.468],[62.549,29.319],[60.875,29.829],[61.782,30.736],[61.699,31.379],[60.943,31.548],[60.864,32.183],[60.536,32.982],[60.965,33.528],[60.529,33.676],[60.803,34.404],[61.21,35.649],[62.232,35.27],[62.984,35.404],[63.193,35.857],[63.982,36.008],[64.547,36.313],[64.745,37.112],[65.587,37.305],[65.746,37.662],[66.217,37.394],[66.52,37.362]]]}},{"type":"Feature","properties":{"name":"Tajikistan"},"geometry":{"type":"Polygon","coordinates":[[[67.83,37.145],[68.392,38.158],[68.176,38.902],[67.441,39.139],[67.7,39.581],[68.536,39.534],[69.011,40.085],[69.331,40.729],[70.667,40.96],[70.458,40.497],[70.602,40.219],[71.013,40.245],[70.649,39.936],[69.558,40.102],[69.464,39.527],[70.548,39.605],[71.783,39.28],[73.677,39.43],[73.929,38.506],[74.256,38.606],[74.865,38.379],[74.829,37.99],[74.98,37.42],[73.95,37.421],[73.259,37.496],[72.636,37.047],[72.193,36.949],[71.844,36.738],[71.448,37.066],[71.542,37.905],[71.239,37.953],[71.347,38.259],[70.807,38.486],[70.375,38.139],[70.271,37.734],[70.116,37.589],[69.518,37.609],[69.194,37.151],[68.86,37.343],[68.136,37.024],[67.83,37.145]]]}},{"type":"Feature","properties":{"name":"Kyrgyzstan"},"geometry":{"type":"Polygon","coordinates":[[[70.962,42.265],[71.185,42.704],[71.844,42.846],[73.489,42.501],[73.644,43.091],[74.213,43.298],[75.639,42.878],[75.999,42.988],[77.658,42.961],[79.141,42.856],[79.645,42.497],[80.261,42.35],[80.121,42.123],[78.544,41.582],[78.187,41.186],[76.906,41.067],[76.528,40.427],[75.469,40.563],[74.778,40.366],[73.821,39.894],[73.961,39.661],[73.677,39.43],[71.783,39.28],[70.548,39.605],[69.464,39.527],[69.558,40.102],[70.649,39.936],[71.013,40.245],[71.776,40.146],[73.054,40.866],[71.869,41.392],[71.157,41.143],[70.419,41.521],[71.261,42.167],[70.962,42.265]]]}},{"type":"Feature","properties":{"name":"Turkmenistan"},"geometry":{"type":"Polygon","coordinates":[[[52.501,41.783],[52.944,42.117],[54.078,42.325],[54.755,42.044],[55.457,41.26],[55.968,41.309],[57.095,41.323],[56.933,41.825],[57.786,42.171],[58.628,42.751],[59.975,42.223],[60.083,41.426],[60.464,41.221],[61.548,41.267],[61.883,41.084],[62.376,40.053],[63.517,39.363],[64.169,38.892],[65.216,38.403],[66.545,37.975],[66.52,37.362],[66.217,37.394],[65.746,37.662],[65.587,37.305],[64.745,37.112],[64.547,36.313],[63.982,36.008],[63.193,35.857],[62.984,35.404],[62.232,35.27],[61.21,35.649],[61.123,36.492],[60.378,36.528],[59.233,37.413],[58.438,37.523],[57.329,38.029],[56.62,38.122],[56.18,37.936],[55.511,37.965],[54.802,37.393],[53.923,37.2],[53.736,37.905],[53.88,38.951],[53.102,39.29],[53.358,39.975],[52.696,40.033],[52.915,40.876],[53.858,40.63],[54.737,40.95],[54.01,41.551],[53.722,42.123],[52.915,41.868],[52.814,41.135],[52.501,41.783]]]}},{"type":"Feature","properties":{"name":"Iran"},"geometry":{"type":"Polygon","coordinates":[[[48.566,29.927],[48.015,30.453],[48.005,30.985],[47.684,30.985],[47.85,31.709],[47.335,32.469],[46.111,33.017],[45.416,33.969],[45.65,34.749],[46.151,35.094],[46.075,35.678],[45.42,35.978],[44.772,37.171],[44.225,37.971],[44.423,38.281],[44.109,39.429],[44.793,39.713],[44.952,39.336],[45.459,38.874],[46.143,38.742],[46.507,38.77],[47.684,39.508],[48.059,39.583],[48.354,39.288],[48.012,38.794],[48.635,38.271],[48.883,38.32],[49.2,37.582],[50.147,37.374],[50.842,36.873],[52.264,36.7],[53.826,36.964],[53.923,37.2],[54.802,37.393],[55.511,37.965],[56.18,37.936],[56.62,38.122],[57.329,38.029],[58.438,37.523],[59.233,37.413],[60.378,36.528],[61.123,36.492],[61.21,35.649],[60.803,34.404],[60.529,33.676],[60.965,33.528],[60.536,32.982],[60.864,32.183],[60.943,31.548],[61.699,31.379],[61.782,30.736],[60.875,29.829],[61.368,29.304],[61.771,28.7],[62.729,28.26],[62.754,27.379],[63.233,27.217],[63.316,26.757],[61.876,26.24],[61.498,25.078],[59.615,25.38],[58.524,25.611],[57.397,25.739],[56.972,26.966],[56.494,27.144],[55.723,26.965],[54.715,26.481],[53.495,26.812],[52.483,27.581],[51.522,27.865],[50.852,28.815],[50.114,30.148],[49.578,29.986],[48.941,30.318],[48.566,29.927]]]}},{"type":"Feature","properties":{"name":"Sri Lanka"},"geometry":{"type":"Polygon","coordinates":[[[81.787,7.522],[81.636,6.481],[81.219,6.197],[80.347,5.969],[79.872,6.764],[79.696,8.201],[80.149,9.824],[80.841,9.269],[81.305,8.565],[81.787,7.522]]]}},{"type":"Feature","properties":{"name":"China"},"geometry":{"type":"MultiPolygon","coordinates":[[[[109.475,18.197],[108.654,18.507],[108.626,19.369],[109.119,19.82],[110.213,20.101],[110.786,20.078],[111.009,19.695],[110.57,19.255],[110.339,18.678],[109.475,18.197]]],[[[80.261,42.35],[80.182,42.92],[80.866,43.181],[79.966,44.918],[81.946,45.317],[82.461,45.539],[83.181,47.33],[85.164,47.001],[85.722,47.453],[85.769,48.455],[86.597,48.55],[87.36,49.215],[87.753,49.298],[88.015,48.599],[88.854,48.069],[90.28,47.693],[90.971,46.888],[90.586,45.72],[90.946,45.287],[92.134,45.116],[93.48,44.975],[94.69,44.352],[95.306,44.241],[95.763,43.32],[96.35,42.726],[97.451,42.75],[99.518,42.524],[100.846,42.663],[101.832,42.514],[103.312,41.907],[104.522,41.908],[104.964,41.597],[106.131,42.135],[107.744,42.482],[109.245,42.519],[110.411,42.871],[111.131,43.406],[111.83,43.743],[111.668,44.073],[111.347,44.457],[111.873,45.102],[112.435,45.012],[113.464,44.809],[114.461,45.339],[115.984,45.727],[116.719,46.389],[117.421,46.673],[118.875,46.805],[119.663,46.693],[119.771,47.049],[118.868,47.748],[118.065,48.068],[117.295,47.697],[116.308,47.853],[115.743,47.727],[115.484,48.135],[116.193,49.134],[116.679,49.889],[117.878,49.511],[119.289,50.143],[119.278,50.583],[120.182,51.644],[120.74,51.964],[120.725,52.516],[120.178,52.754],[121.003,53.252],[122.245,53.431],[123.573,53.458],[125.067,53.16],[125.945,52.793],[126.565,51.784],[126.939,51.354],[127.288,50.74],[127.659,49.76],[129.398,49.44],[130.582,48.729],[130.986,47.79],[132.508,47.788],[133.372,48.183],[135.025,48.479],[134.499,47.578],[134.114,47.213],[133.768,46.118],[133.099,45.144],[131.882,45.321],[131.025,44.968],[131.288,44.112],[131.144,42.931],[130.633,42.904],[130.64,42.396],[129.995,42.985],[129.596,42.425],[128.051,41.995],[128.21,41.467],[127.342,41.504],[126.871,41.817],[126.183,41.108],[125.081,40.57],[124.264,39.928],[122.867,39.639],[122.133,39.17],[121.053,38.897],[121.586,39.361],[121.377,39.75],[122.169,40.422],[121.64,40.947],[120.769,40.593],[119.638,39.898],[119.023,39.253],[118.043,39.204],[117.532,38.738],[118.061,38.061],[118.879,37.897],[118.911,37.448],[119.703,37.156],[120.823,37.87],[121.712,37.481],[122.356,37.455],[122.518,36.931],[121.103,36.651],[120.635,36.111],[119.663,35.61],[119.152,34.91],[120.229,34.36],[120.621,33.376],[121.229,32.46],[121.91,31.692],[121.892,30.949],[121.265,30.677],[121.503,30.143],[122.093,29.832],[121.939,29.018],[121.683,28.226],[121.125,28.136],[120.394,27.053],[119.584,25.741],[118.655,24.548],[117.28,23.625],[115.891,22.782],[114.764,22.667],[114.152,22.224],[113.806,22.549],[113.241,22.051],[111.844,21.55],[110.786,21.398],[110.444,20.342],[109.889,20.283],[109.626,21.009],[109.864,21.395],[108.521,21.714],[108.05,21.552],[107.042,21.813],[106.566,22.219],[106.725,22.794],[105.81,22.977],[105.328,23.353],[104.478,22.82],[103.503,22.705],[102.707,22.71],[102.171,22.464],[101.652,22.319],[101.804,21.174],[101.271,21.202],[101.181,21.437],[101.148,21.85],[100.418,21.559],[99.982,21.743],[99.24,22.119],[99.532,22.948],[98.898,23.143],[98.661,24.064],[97.606,23.898],[97.725,25.084],[98.672,25.919],[98.711,26.743],[98.682,27.508],[98.247,27.747],[97.912,28.336],[97.329,28.261],[96.249,28.412],[96.587,28.832],[96.119,29.453],[95.406,29.031],[94.568,29.277],[93.412,28.64],[92.505,27.897],[91.698,27.772],[91.259,28.041],[90.73,28.065],[90.017,28.297],[89.477,28.043],[88.815,27.3],[88.732,28.087],[88.12,27.877],[86.953,27.973],[85.823,28.204],[85.013,28.642],[84.235,28.84],[83.901,29.321],[83.335,29.463],[82.327,30.115],[81.525,30.423],[81.111,30.184],[79.721,30.883],[78.738,31.516],[78.457,32.618],[79.177,32.484],[79.21,32.994],[78.81,33.506],[78.911,34.322],[77.838,35.494],[76.193,35.898],[75.898,36.666],[75.16,37.134],[74.98,37.42],[74.829,37.99],[74.865,38.379],[74.256,38.606],[73.929,38.506],[73.677,39.43],[73.961,39.661],[73.821,39.894],[74.778,40.366],[75.469,40.563],[76.528,40.427],[76.906,41.067],[78.187,41.186],[78.544,41.582],[80.121,42.123],[80.261,42.35]]]]}},{"type":"Feature","properties":{"name":"Malaysia"},"geometry":{"type":"MultiPolygon","coordinates":[[[[100.086,6.464],[100.259,6.642],[101.076,6.205],[101.156,5.691],[101.814,5.811],[102.142,6.222],[102.372,6.128],[102.963,5.525],[103.38,4.855],[103.438,4.181],[103.334,3.726],[103.431,3.382],[103.503,2.792],[103.856,2.516],[104.248,1.631],[104.23,1.294],[103.521,1.226],[102.574,1.967],[101.39,2.761],[101.274,3.271],[100.695,3.939],[100.558,4.767],[100.198,5.312],[100.306,6.041],[100.086,6.464]]],[[[117.881,4.137],[117.014,4.306],[115.865,4.306],[115.52,3.169],[115.135,2.822],[114.62,1.431],[113.806,1.218],[112.859,1.498],[112.381,1.41],[111.797,0.904],[111.16,0.977],[110.516,0.772],[109.832,1.338],[109.662,2.006],[110.397,1.664],[111.167,1.851],[111.369,2.697],[111.797,2.886],[112.996,3.103],[113.713,3.893],[114.206,4.526],[114.659,4.007],[114.868,4.349],[115.347,4.317],[115.405,4.955],[115.451,5.447],[116.222,6.143],[116.726,6.925],[117.129,6.928],[117.644,6.422],[117.691,5.987],[118.349,5.708],[119.181,5.408],[119.109,5.016],[118.439,4.967],[118.619,4.477],[117.881,4.137]]]]}},{"type":"Feature","properties":{"name":"Saudi Arabia"},"geometry":{"type":"Polygon","coordinates":[[[34.955,29.356],[36.071,29.197],[36.503,29.505],[36.74,29.866],[37.503,30.005],[37.669,30.338],[38,30.509],[37.003,31.509],[39.005,32.01],[39.195,32.161],[40.401,31.89],[41.888,31.189],[44.711,29.179],[46.568,29.099],[47.461,29.003],[47.709,28.525],[48.415,28.552],[48.807,27.689],[49.301,27.461],[49.47,27.11],[50.154,26.689],[50.212,26.278],[50.114,25.944],[50.24,25.607],[50.528,25.328],[50.662,25],[50.809,24.754],[51.112,24.556],[51.389,24.627],[51.58,24.245],[51.619,24.015],[52.001,23.001],[55.007,22.496],[55.208,22.708],[55.666,22],[55,20],[52.001,19],[49.117,18.617],[48.185,18.167],[47.468,17.117],[47,16.95],[46.748,17.283],[46.367,17.233],[45.398,17.334],[45.218,17.434],[44.063,17.41],[43.793,17.321],[43.382,17.579],[43.116,17.089],[43.217,16.667],[42.781,16.347],[42.648,16.774],[42.349,17.075],[42.27,17.475],[41.755,17.833],[41.222,18.671],[40.938,19.487],[40.247,20.174],[39.8,20.338],[39.138,21.291],[39.023,21.987],[39.066,22.579],[38.493,23.688],[38.025,24.079],[37.485,24.285],[37.154,24.859],[37.208,25.084],[36.931,25.602],[36.639,25.826],[36.251,26.57],[35.639,27.376],[35.131,28.063],[34.631,28.058],[34.789,28.608],[34.832,28.957],[34.955,29.356]]]}}]}